STARLINK-1008           
1 44714U 19074B   25088.96643103 -.00003272  00000+0 -20081-3 0  9995
2 44714  53.0553 294.1359 0001500  96.7180 263.3979 15.06403823296966
STARLINK-1010           
1 44716U 19074D   25088.97380518  .00005391  00000+0  38040-3 0  9992
2 44716  53.0547 294.1056 0001422  93.5083 266.6069 15.06411757296944
STARLINK-1011           
1 44717U 19074E   25088.90561912  .00001943  00000+0  14929-3 0  9994
2 44717  53.0525 314.4170 0001223  88.1486 271.9643 15.06398892296503
STARLINK-1012           
1 44718U 19074F   25088.94430481  .00006586  00000+0  46049-3 0  9991
2 44718  53.0522 294.2368 0001355 107.8245 252.2892 15.06411066296959
STARLINK-1013           
1 44719U 19074G   25088.88534052  .00002786  00000+0  20582-3 0  9996
2 44719  53.0536 294.5029 0001468  86.0581 274.0576 15.06403361297904
STARLINK-1014           
1 44720U 19074H   25089.25002315  .00175852  00000+0  27999-2 0  9995
2 44720  53.0449 260.6043 0010043 218.8800 226.8911 15.52122423297464
STARLINK-1015           
1 44721U 19074J   25088.85958077  .00004862  00000+0  34504-3 0  9999
2 44721  53.0540 294.9693 0001434  86.3643 273.7510 15.06404413296764
STARLINK-1017           
1 44723U 19074L   25088.91113612  .00000595  00000+0  58836-4 0  9990
2 44723  53.0525 294.3871 0001381  87.4810 272.6337 15.06400821296786
STARLINK-1019           
1 44724U 19074M   25088.94062218 -.00001326  00000+0 -70113-4 0  9996
2 44724  53.0543 294.2558 0001561  89.2834 270.8334 15.06397704296786
STARLINK-1020           
1 44725U 19074N   25088.94616241  .00000639  00000+0  61802-4 0  9997
2 44725  53.0537 314.2340 0001124  79.7202 280.3914 15.06397324296508
STARLINK-1021           
1 44726U 19074P   25088.87059168  .00006968  00000+0  48629-3 0  9991
2 44726  53.0534 294.5690 0001315 102.5786 257.5350 15.06392325296773
STARLINK-1027           
1 44732U 19074V   25089.58335648  .00324963  00000+0  11486-2 0  9995
2 44732  53.0456 273.7842 0004449 201.9649 338.5149 15.87679854297292
STARLINK-1029           
1 44734U 19074X   25089.54510895  .00017667  00000+0  12012-2 0  9998
2 44734  53.0540 211.5420 0001415  85.8873 274.2278 15.06424007298141
STARLINK-1030           
1 44735U 19074Y   25089.34054576  .00006774  00000+0  47293-3 0  9993
2 44735  53.0549 312.4577 0001055  94.4446 265.6664 15.06423953296732
STARLINK-1031           
1 44736U 19074Z   25088.95720381  .00020014  00000+0  13570-2 0  9997
2 44736  53.0542 314.1856 0001455  84.2911 275.8244 15.06446383296686
STARLINK-1035           
1 44740U 19074AD  25089.58335648  .00488414  11363-3  96576-3 0  9998
2 44740  53.0394 268.9672 0005451 251.8556 332.7674 15.99423707297368
STARLINK-1036           
1 44741U 19074AE  25088.90930441  .00003233  00000+0  23584-3 0  9999
2 44741  53.0548 314.3957 0001142  76.0645 284.0471 15.06401383296504
STARLINK-1039           
1 44744U 19074AH  25088.97012194  .00010268  00000+0  70720-3 0  9995
2 44744  53.0568 334.1237 0001450  97.2264 262.8889 15.06400901296236
STARLINK-1042           
1 44747U 19074AL  25088.92216970  .00020830  00000+0  60925-3 0  9993
2 44747  53.0488 288.8706 0005093 144.1978 215.9365 15.35242144297051
STARLINK-1043           
1 44748U 19074AM  25088.94801085  .00011955  00000+0  81986-3 0  9991
2 44748  53.0553 334.2233 0001756  97.0146 263.1043 15.06412516296238
STARLINK-1046           
1 44751U 19074AQ  25088.96276913  .00022980  00000+0  15566-2 0  9993
2 44751  53.0550 334.1560 0001587  75.8139 284.3026 15.06399809296234
STARLINK-1047           
1 44752U 19074AR  25089.01024352  .00011437  00000+0  51117-3 0  9997
2 44752  53.0604 304.4682 0004030 131.8986 228.2354 15.21787066296828
STARLINK-1048           
1 44753U 19074AS  25088.85584899 -.00000684  00000+0 -27027-4 0  9994
2 44753  53.0548 294.6367 0001531  93.3571 266.7593 15.06401068296775
STARLINK-1053           
1 44758U 19074AX  25089.35357377  .00027220  00000+0  68404-3 0  9990
2 44758  53.0474 317.1873 0000398 117.2805 242.8239 15.39796005296672
STARLINK-1054           
1 44759U 19074AY  25088.92589777  .00015032  00000+0  10261-2 0  9999
2 44759  53.0549 334.3229 0001387  94.6962 265.4185 15.06392766293873
STARLINK-1056           
1 44761U 19074BA  25089.38663888  .00002492  00000+0  18611-3 0  9993
2 44761  53.0557 332.2570 0001547  85.7908 274.3258 15.06402668296472
STARLINK-1057           
1 44762U 19074BB  25088.92404434  .00000397  00000+0  45518-4 0  9992
2 44762  53.0536 314.3303 0001157  98.0000 262.1120 15.06399324296503
STARLINK-1058           
1 44763U 19074BC  25088.75176052  .01086815  71094-3  11808-2 0  9994
2 44763  53.0385 274.9295 0009582 274.4869 178.8725 16.09290559297217
STARLINK-1060           
1 44765U 19074BE  25088.93879451  .00003236  00000+0  23606-3 0  9999
2 44765  53.0547 314.2653 0001468  93.8984 266.2173 15.06400889296506
STARLINK-1063           
1 44768U 19074BH  25088.95170194  .00016241  00000+0  11066-2 0  9998
2 44768  53.0553 334.2082 0001383  83.6374 276.4772 15.06403840296249
STARLINK-1067           
1 44771U 19074BL  25088.94063521  .00014654  00000+0  10008-2 0  9997
2 44771  53.0551 334.2569 0001397  90.2708 269.8441 15.06394257296230
STARLINK-1068           
1 44772U 19074BM  25089.32950037  .00003086  00000+0  22592-3 0  9997
2 44772  53.0544 312.5135 0001371  89.5431 270.5715 15.06406055296735
STARLINK-1073           
1 44914U 20001A   25088.91668981  .00313074  47348-4  10085-2 0  9990
2 44914  53.0437  42.1951 0006498  98.2352 158.1426 15.90410607  6066
STARLINK-1098           
1 44917U 20001D   25089.24655896  .00001850  00000+0  14307-3 0  9998
2 44917  53.0539  92.8830 0001363  82.0791 278.0352 15.06388687287930
STARLINK-1103           
1 44921U 20001H   25089.58335648  .00224623  00000+0  83768-3 0  9992
2 44921  53.0452  46.6605 0002523 154.8930 302.6470 15.86848055288583
STARLINK-1104           
1 44922U 20001J   25089.32766152  .00006724  00000+0  46989-3 0  9997
2 44922  53.0535  92.5195 0001411  79.6407 280.4741 15.06398698287946
STARLINK-1106           
1 44923U 20001K   25089.58335648  .00314091  00000+0  12776-2 0  9993
2 44923  52.9986 317.7577 0004305 145.1908 297.7428 15.84815448289848
STARLINK-1112           
1 44925U 20001M   25089.29078705  .00001893  00000+0  14596-3 0  9997
2 44925  53.0543  92.6829 0001284  89.2998 270.8138 15.06397891287939
STARLINK-1114           
1 44927U 20001P   25089.23550106  .00000795  00000+0  72250-4 0  9995
2 44927  53.0546  92.9307 0001400  94.2660 265.8489 15.06389342287935
STARLINK-1123           
1 44930U 20001S   25089.25024251  .00001867  00000+0  14422-3 0  9995
2 44930  53.0521  92.8661 0001471 100.4249 259.6906 15.06393438287931
STARLINK-1130 (DARKSAT) 
1 44932U 20001U   25089.33335648  .00165102  00000+0  12725-2 0  9997
2 44932  53.0473  47.0989 0006447  86.7015  48.2041 15.70940611289812
STARLINK-1144           
1 44933U 20001V   25089.24584195  .00088727  00000+0  34208-2 0  9998
2 44933  53.0555  80.1174 0007504  39.0467 321.1071 15.25560043289403
STARLINK-1071           
1 44934U 20001W   25089.34425213 -.00000387  00000+0 -71061-5 0  9994
2 44934  53.0550  72.4444 0001407  81.3736 278.7413 15.06374639288227
STARLINK-1079           
1 44937U 20001Z   25089.50704191  .00081956  00000+0  11426-2 0  9995
2 44937  53.0423  15.2033 0001699  72.6118 287.5078 15.56226859289050
STARLINK-1091           
1 44940U 20001AC  25089.17468371  .00001815  00000+0  14077-3 0  9991
2 44940  53.0535  73.2013 0001488  99.4189 260.6968 15.06390255288192
STARLINK-1094           
1 44941U 20001AD  25089.19679768  .00001428  00000+0  11475-3 0  9997
2 44941  53.0539  73.1023 0001536  91.2722 268.8442 15.06390930288203
STARLINK-1096           
1 44942U 20001AE  25088.85383913  .00046686  00000+0  66573-3 0  9998
2 44942  53.0016 290.1205 0002826 112.3718 247.7591 15.55854299290177
STARLINK-1109           
1 44945U 20001AH  25089.58335648  .00184625  00000+0  10095-2 0  9997
2 44945  53.0476  18.3099 0005221 114.3691 166.6176 15.78794677288998
STARLINK-1122           
1 44949U 20001AM  25089.35160817  .00002363  00000+0  17752-3 0  9996
2 44949  53.0548  72.4098 0001621  86.8947 273.2227 15.06393288288221
STARLINK-1117           
1 44952U 20001AQ  25089.25002315  .00211975  00000+0  14439-2 0  9996
2 44952  53.0452  53.6517 0005218 105.2442 162.9417 15.73713055288472
STARLINK-1066           
1 44954U 20001AS  25089.16545396  .00024273  00000+0  16409-2 0  9991
2 44954  53.0522  53.2484 0001262  61.7678 298.3439 15.06442875288421
STARLINK-1080           
1 44961U 20001AZ  25089.21707029  .00001485  00000+0  11857-3 0  9991
2 44961  53.0546  53.0153 0001499  98.6666 261.4492 15.06392103288499
STARLINK-1088           
1 44966U 20001BE  25089.58335648  .00333539  53501-4  96310-3 0  9994
2 44966  53.0493 274.9412 0003723 285.5394 328.2646 15.92541428290479
STARLINK-1090           
1 44968U 20001BG  25089.22076087  .00001132  00000+0  94930-4 0  9995
2 44968  53.0545  52.9975 0001453  96.1264 263.9891 15.06387795288493
STARLINK-1092           
1 44969U 20001BH  25089.58335648  .00102309  00000+0  84347-3 0  9994
2 44969  53.0493  31.3155 0002066 147.1343 185.3997 15.69576087288816
STARLINK-1093           
1 44970U 20001BJ  25089.58335648  .00113417  00000+0  10343-2 0  9992
2 44970  53.0472  10.2796 0002160  99.6163 169.0243 15.67061562289109
STARLINK-1107           
1 44972U 20001BL  25089.10256616  .00061586  00000+0  19070-2 0  9994
2 44972  53.0273  32.3200 0004533 104.0614 256.0890 15.32891575288777
STARLINK-1115           
1 44973U 20001BM  25089.18935315  .00102496  00000+0  19216-2 0  9991
2 44973  53.0419  14.9472 0007863  63.6595 296.5218 15.47831017289027
STARLINK-1132           
1 45044U 20006A   25089.04752973 -.00000269  00000+0  81877-6 0  9990
2 45044  53.0548  13.7732 0000920 123.2637 236.8441 15.06404328285132
STARLINK-1131           
